[{"OBJECT_NAME":"STARLINK-3913","OBJECT_ID":"2022-049AL","EPOCH":"2026-03-09T09:05:36.400128","MEAN_MOTION":15.08829936,"ECCENTRICITY":0.00014775,"INCLINATION":53.2185,"RA_OF_ASC_NODE":50.5147,"ARG_OF_PERICENTER":90.2684,"MEAN_ANOMALY":269.8478,"EPHEMERIS_TYPE":0,"CLASSIFICATION_TYPE":"U","NORAD_CAT_ID":52485,"ELEMENT_SET_NO":999,"REV_AT_EPOCH":21234,"BSTAR":-5.2300849e-5,"MEAN_MOTION_DOT":-1.12e-5,"MEAN_MOTION_DDOT":0},{"OBJECT_NAME":"CZ-6A R\/B","OBJECT_ID":"2022-031C","EPOCH":"2026-03-09T19:50:55.360896","MEAN_MOTION":15.07476837,"ECCENTRICITY":0.00174842,"INCLINATION":97.8104,"RA_OF_ASC_NODE":273.2347,"ARG_OF_PERICENTER":181.6412,"MEAN_ANOMALY":178.4761,"EPHEMERIS_TYPE":0,"CLASSIFICATION_TYPE":"U","NORAD_CAT_ID":52152,"ELEMENT_SET_NO":999,"REV_AT_EPOCH":21633,"BSTAR":0.00020233161,"MEAN_MOTION_DOT":3.012e-5,"MEAN_MOTION_DDOT":0}]
